OBJECT_NAME,OBJECT_ID,EPOCH,MEAN_MOTION,ECCENTRICITY,INCLINATION,RA_OF_ASC_NODE,ARG_OF_PERICENTER,MEAN_ANOMALY,EPHEMERIS_TYPE,CLASSIFICATION_TYPE,NORAD_CAT_ID,ELEMENT_SET_NO,REV_AT_EPOCH,BSTAR,MEAN_MOTION_DOT,MEAN_MOTION_DDOT
LEMUR-2-ROUNDTRIPPER,2025-009DG,2026-07-06T04:32:00.256704,15.04126128,.00045159,97.7222,269.8431,85.1378,275.0364,0,U,62711,999,8048,.69562887E-3,.959E-4,0
LEMUR-2-MYNAMEISJEFF,2025-009DH,2026-07-06T04:29:45.197952,15.04118145,.0003594,97.7273,270.2338,118.7243,241.4344,0,U,62712,999,8048,.69930425E-3,.9639E-4,0
LEMUR-2-LEIA-PHILIP,2025-052AN,2026-07-06T05:58:30.501696,14.97373069,.00047714,97.6815,78.8772,142.6736,217.4818,0,U,63246,999,7152,.20276551E-3,.2298E-4,0
LEMUR-2-LIA-MARTIN,2025-052AQ,2026-07-06T05:55:59.280096,14.97973662,.00051661,97.6860,79.3784,112.6456,247.5313,0,U,63248,999,7153,.49981347E-3,.5843E-4,0
LEMUR-2-DELOITTE-1,2025-052BB,2026-07-06T07:01:57.271872,14.97740508,.00022937,97.6884,79.7552,65.7376,294.4086,0,U,63259,999,7155,.35574407E-3,.4115E-4,0
LEMUR-2-EMERSONROSE,2025-052BD,2026-07-06T07:35:13.091136,14.99235118,.00027423,97.6868,80.3714,74.5681,285.5844,0,U,63261,999,7160,.41696975E-3,.5026E-4,0
LEMUR-2-MARACHE-FRAN,2025-052BE,2026-07-06T05:04:38.074656,15.00275904,.00044219,97.6871,80.6241,294.8604,65.2160,0,U,63262,999,7161,.3948381E-3,.4888E-4,0
LEMUR-2-THEFALCONER,2025-052BG,2026-07-06T06:07:47.222688,14.97528478,.00009623,97.6842,79.3170,29.1762,330.9514,0,U,63264,999,7154,.4215911E-3,.4861E-4,0
LEMUR-2-UNTITLED-SC,2025-061A,2026-07-05T22:20:15.709632,15.13606209,.00182184,97.5649,162.1578,194.9131,165.1565,0,U,63351,999,7042,.24018684E-3,.4262E-4,0
LEMUR-2-ESPERANZA,2025-061B,2026-07-06T08:52:01.138368,15.13716317,.00179162,97.5654,162.6913,192.5724,167.5063,0,U,63352,999,7049,.29558316E-3,.5277E-4,0
LEMUR-2-KREMPEL-BRO2,2025-061C,2026-07-05T22:16:45.329952,15.14137182,.00189812,97.5704,162.8106,186.7372,173.3607,0,U,63353,999,7044,.23215455E-3,.4181E-4,0
LEMUR-2-THERMORAPTOR,2025-061D,2026-07-06T13:41:04.650144,15.14221882,.00188319,97.5706,163.5281,183.2595,176.8517,0,U,63354,999,7054,.1651325E-3,.2961E-4,0
LEMUR-2-NEUROSPICY,2025-061E,2026-07-05T21:06:38.102688,15.14336803,.00164931,97.5634,162.4530,188.7768,171.3178,0,U,63355,999,7044,.27581484E-3,.5004E-4,0
LEMUR-2-TILLINFINITY,2025-061F,2026-07-06T08:52:50.445984,15.14923266,.0018162,97.5620,163.2443,175.3339,184.8066,0,U,63356,999,7054,.19803423E-3,.3636E-4,0
LEMUR-2-KREMPEL-BRO1,2025-061G,2026-07-05T21:12:17.362656,15.14727577,.00186999,97.5621,162.6713,178.6211,181.5075,0,U,63357,999,7046,.2690285E-3,.4938E-4,0
LEMUR-2-LANGER2SPACE,2025-061H,2026-07-06T09:01:52.038336,15.14425659,.00165281,97.5625,162.9676,185.0371,175.0698,0,U,63358,999,7052,.20126868E-3,.3642E-4,0
LEMUR-2-BALTO,2025-052BH,2026-07-05T22:18:18.539136,15.00303098,.00057728,97.6925,80.3241,3.4548,356.6714,0,U,63395,999,7157,.5474846E-3,.6808E-4,0
LEMUR-2-KRISH,2025-135AK,2026-07-06T06:24:31.307328,14.96393716,.00016938,97.7758,302.0143,102.4556,257.6855,0,U,64561,999,5677,.54224209E-3,.6088E-4,0
LEMUR-2-HUBBLE-4,2025-135AP,2026-07-06T07:09:46.965600,14.93667660,.00018672,97.7713,300.9804,188.6037,171.5151,0,U,64565,999,5672,.13498021E-3,.137E-4,0
LEMUR-2-SEJONG-2,2025-135BL,2026-07-06T13:23:50.920800,14.96870630,.00031026,97.7709,302.4499,256.9898,103.0978,0,U,64586,999,5684,.27747071E-3,.3124E-4,0
LEMUR-2-HUBBLE-5,2025-135BT,2026-07-06T07:27:01.838016,14.94194144,.00040937,97.7734,301.6518,274.4902,85.5850,0,U,64840,999,5676,.14617556E-3,.1509E-4,0
LEMUR-2-KARENDARRELL,2025-135BU,2026-07-06T06:14:48.937632,15.00415021,.00115125,97.7697,303.4406,133.2571,226.9615,0,U,64841,999,5687,.6440855E-3,.8052E-4,0
LEMUR-2-LUCILLE-ROSE,2025-135BV,2026-07-06T07:12:34.371648,15.00417881,.00137131,97.7721,303.5150,216.5790,143.4498,0,U,65403,999,5150,.58285122E-3,.7284E-4,0
LEMUR-2-AFFIE-WAUWIE,2025-248C,2026-07-05T19:47:57.109056,15.27976863,.0008364,45.3926,13.9564,202.7682,157.2838,0,U,66295,999,3744,.82702E-3,.22785E-3,0
LEMUR-2-DEANANDMAEVE,2025-276N,2026-07-06T03:27:54.884736,15.19983006,.0004246,97.4199,260.3076,297.3184,62.7619,0,U,66678,999,3329,.3511E-3,.7494E-4,0
LEMUR-2-FINNIAN,2025-276DX,2026-07-06T03:40:23.816352,15.00543596,.0008128,97.5336,257.5504,31.0182,329.1520,0,U,66782,999,2284,.24129E-3,.2987E-4,0
